{
  "type": "FeatureCollection",
  "features": [
    {
      "type": "Feature",
      "properties": {
        "norad_id": 37978,
        "name": "COSMOS 2251 DEB",
        "group": "cosmos-2251-debris",
        "lat": 73.94351416517547,
        "lon": 179.29131763177028,
        "alt_km": 300.0200295941868,
        "timestamp": "2025-12-10T05:46:14.224599+00:00",
        "meta_object_name": "COSMOS 2251 DEB",
        "meta_object_id": "1993-036BQD",
        "meta_epoch": "2025-11-19T05:08:53.100672",
        "meta_mean_motion": 15.61137081,
        "meta_eccentricity": 0.00148985,
        "meta_inclination": 74.0238,
        "meta_ra_of_asc_node": 142.2198,
        "meta_arg_of_pericenter": 140.9849,
        "meta_mean_anomaly": 219.2448,
        "meta_ephemeris_type": 0,
        "meta_classification_type": "U",
        "meta_norad_cat_id": 37978,
        "meta_element_set_no": 999,
        "meta_rev_at_epoch": 8032,
        "meta_bstar": 0.0043958825,
        "meta_mean_motion_dot": 0.0039117,
        "meta_mean_motion_ddot": 0,
        "tle_line1": "1 37978U 93036BQD 25323.21450348  .00391170  00000+0  43959-2 0  9999",
        "tle_line2": "2 37978  74.0238 142.2198 0014898 140.9849 219.2448 15.61137081 80328"
      },
      "geometry": {
        "type": "Point",
        "coordinates": [
          179.29131763177028,
          73.94351416517547
        ]
      }
    },
    {
      "type": "Feature",
      "properties": {
        "norad_id": 37985,
        "name": "COSMOS 2251 DEB",
        "group": "cosmos-2251-debris",
        "lat": -73.41037543579228,
        "lon": -163.72731081015425,
        "alt_km": 787.6554194433356,
        "timestamp": "2025-12-10T05:46:14.224609+00:00",
        "meta_object_name": "COSMOS 2251 DEB",
        "meta_object_id": "1993-036BQL",
        "meta_epoch": "2025-12-07T12:56:14.167968",
        "meta_mean_motion": 14.35480265,
        "meta_eccentricity": 0.00206161,
        "meta_inclination": 74.0254,
        "meta_ra_of_asc_node": 275.2818,
        "meta_arg_of_pericenter": 39.5807,
        "meta_mean_anomaly": 320.6846,
        "meta_ephemeris_type": 0,
        "meta_classification_type": "U",
        "meta_norad_cat_id": 37985,
        "meta_element_set_no": 999,
        "meta_rev_at_epoch": 64842,
        "meta_bstar": 0.0001017568,
        "meta_mean_motion_dot": 2.67e-06,
        "meta_mean_motion_ddot": 0,
        "tle_line1": "1 37985U 93036BQL 25341.53905287  .00000267  00000+0  10176-3 0  9999",
        "tle_line2": "2 37985  74.0254 275.2818 0020616  39.5807 320.6846 14.35480265648427"
      },
      "geometry": {
        "type": "Point",
        "coordinates": [
          -163.72731081015425,
          -73.41037543579228
        ]
      }
    },
    {
      "type": "Feature",
      "properties": {
        "norad_id": 37988,
        "name": "COSMOS 2251 DEB",
        "group": "cosmos-2251-debris",
        "lat": -23.579916223937744,
        "lon": 21.69015650538557,
        "alt_km": 671.017035745951,
        "timestamp": "2025-12-10T05:46:14.224619+00:00",
        "meta_object_name": "COSMOS 2251 DEB",
        "meta_object_id": "1993-036BQP",
        "meta_epoch": "2025-12-08T13:00:57.140928",
        "meta_mean_motion": 14.6880347,
        "meta_eccentricity": 0.0063188,
        "meta_inclination": 74.0631,
        "meta_ra_of_asc_node": 32.1342,
        "meta_arg_of_pericenter": 70.9756,
        "meta_mean_anomaly": 289.8245,
        "meta_ephemeris_type": 0,
        "meta_classification_type": "U",
        "meta_norad_cat_id": 37988,
        "meta_element_set_no": 999,
        "meta_rev_at_epoch": 23334,
        "meta_bstar": 0.0011554,
        "meta_mean_motion_dot": 6.927e-05,
        "meta_mean_motion_ddot": 0,
        "tle_line1": "1 37988U 93036BQP 25342.54232802  .00006927  00000+0  11554-2 0  9999",
        "tle_line2": "2 37988  74.0631  32.1342 0063188  70.9756 289.8245 14.68803470233347"
      },
      "geometry": {
        "type": "Point",
        "coordinates": [
          21.69015650538557,
          -23.579916223937744
        ]
      }
    },
    {
      "type": "Feature",
      "properties": {
        "norad_id": 37993,
        "name": "COSMOS 2251 DEB",
        "group": "cosmos-2251-debris",
        "lat": -13.626566348556974,
        "lon": -4.330451620848739,
        "alt_km": 691.5397215170306,
        "timestamp": "2025-12-10T05:46:14.224629+00:00",
        "meta_object_name": "COSMOS 2251 DEB",
        "meta_object_id": "1993-036BQU",
        "meta_epoch": "2025-12-09T05:51:24.736320",
        "meta_mean_motion": 14.59845478,
        "meta_eccentricity": 0.0022054,
        "meta_inclination": 74.0217,
        "meta_ra_of_asc_node": 173.5884,
        "meta_arg_of_pericenter": 262.4751,
        "meta_mean_anomaly": 97.3909,
        "meta_ephemeris_type": 0,
        "meta_classification_type": "U",
        "meta_norad_cat_id": 37993,
        "meta_element_set_no": 999,
        "meta_rev_at_epoch": 65266,
        "meta_bstar": 0.0017274,
        "meta_mean_motion_dot": 8.27e-05,
        "meta_mean_motion_ddot": 0,
        "tle_line1": "1 37993U 93036BQU 25343.24403630  .00008270  00000+0  17274-2 0  9990",
        "tle_line2": "2 37993  74.0217 173.5884 0022054 262.4751  97.3909 14.59845478652667"
      },
      "geometry": {
        "type": "Point",
        "coordinates": [
          -4.330451620848739,
          -13.626566348556974
        ]
      }
    },
    {
      "type": "Feature",
      "properties": {
        "norad_id": 37994,
        "name": "COSMOS 2251 DEB",
        "group": "cosmos-2251-debris",
        "lat": 68.71506116660866,
        "lon": 53.0210567515292,
        "alt_km": 756.670480027723,
        "timestamp": "2025-12-10T05:46:14.224639+00:00",
        "meta_object_name": "COSMOS 2251 DEB",
        "meta_object_id": "1993-036BQV",
        "meta_epoch": "2025-12-09T04:16:21.574272",
        "meta_mean_motion": 14.39609674,
        "meta_eccentricity": 0.00227751,
        "meta_inclination": 74.037,
        "meta_ra_of_asc_node": 282.2654,
        "meta_arg_of_pericenter": 2.3613,
        "meta_mean_anomaly": 357.7645,
        "meta_ephemeris_type": 0,
        "meta_classification_type": "U",
        "meta_norad_cat_id": 37994,
        "meta_element_set_no": 999,
        "meta_rev_at_epoch": 77013,
        "meta_bstar": 0.00054509171,
        "meta_mean_motion_dot": 1.682e-05,
        "meta_mean_motion_ddot": 0,
        "tle_line1": "1 37994U 93036BQV 25343.17802748  .00001682  00000+0  54509-3 0  9999",
        "tle_line2": "2 37994  74.0370 282.2654 0022775   2.3613 357.7645 14.39609674770136"
      },
      "geometry": {
        "type": "Point",
        "coordinates": [
          53.0210567515292,
          68.71506116660866
        ]
      }
    },
    {
      "type": "Feature",
      "properties": {
        "norad_id": 37996,
        "name": "COSMOS 2251 DEB",
        "group": "cosmos-2251-debris",
        "lat": -73.6212549202372,
        "lon": 131.18425640167973,
        "alt_km": 749.5319690900242,
        "timestamp": "2025-12-10T05:46:14.224649+00:00",
        "meta_object_name": "COSMOS 2251 DEB",
        "meta_object_id": "1993-036BQX",
        "meta_epoch": "2025-11-16T18:35:00.708864",
        "meta_mean_motion": 14.09591608,
        "meta_eccentricity": 0.02219827,
        "meta_inclination": 74.0658,
        "meta_ra_of_asc_node": 248.8308,
        "meta_arg_of_pericenter": 5.4709,
        "meta_mean_anomaly": 354.8776,
        "meta_ephemeris_type": 0,
        "meta_classification_type": "U",
        "meta_norad_cat_id": 37996,
        "meta_element_set_no": 999,
        "meta_rev_at_epoch": 55769,
        "meta_bstar": 0.0096790999,
        "meta_mean_motion_dot": 0.00021331,
        "meta_mean_motion_ddot": 0,
        "tle_line1": "1 37996U 93036BQX 25320.77431376  .00021331  00000+0  96791-2 0  9998",
        "tle_line2": "2 37996  74.0658 248.8308 0221982   5.4709 354.8776 14.09591608557693"
      },
      "geometry": {
        "type": "Point",
        "coordinates": [
          131.18425640167973,
          -73.6212549202372
        ]
      }
    },
    {
      "type": "Feature",
      "properties": {
        "norad_id": 37998,
        "name": "COSMOS 2251 DEB",
        "group": "cosmos-2251-debris",
        "lat": -44.141964900321774,
        "lon": -136.3614073998651,
        "alt_km": 732.6375635029726,
        "timestamp": "2025-12-10T05:46:14.224659+00:00",
        "meta_object_name": "COSMOS 2251 DEB",
        "meta_object_id": "1993-036BQZ",
        "meta_epoch": "2025-12-07T01:34:33.386016",
        "meta_mean_motion": 14.45444842,
        "meta_eccentricity": 0.00199405,
        "meta_inclination": 74.0387,
        "meta_ra_of_asc_node": 245.6796,
        "meta_arg_of_pericenter": 320.6712,
        "meta_mean_anomaly": 39.2997,
        "meta_ephemeris_type": 0,
        "meta_classification_type": "U",
        "meta_norad_cat_id": 37998,
        "meta_element_set_no": 999,
        "meta_rev_at_epoch": 64205,
        "meta_bstar": 0.00093558552,
        "meta_mean_motion_dot": 3.277e-05,
        "meta_mean_motion_ddot": 0,
        "tle_line1": "1 37998U 93036BQZ 25341.06566419  .00003277  00000+0  93559-3 0  9991",
        "tle_line2": "2 37998  74.0387 245.6796 0019940 320.6712  39.2997 14.45444842642056"
      },
      "geometry": {
        "type": "Point",
        "coordinates": [
          -136.3614073998651,
          -44.141964900321774
        ]
      }
    }
  ]
}